ONEWEB-0520             
1 54138U 22138AB  26200.80688052 -.00000163  00000+0 -43827-3 0  9992
2 54138  87.9193 298.4733 0002118 107.2032 252.9333 13.19725102181124
ONEWEB-0521             
1 54139U 22138AC  26200.76421803 -.00000066  00000+0 -19612-3 0  9994
2 54139  87.9198 298.4709 0001797  97.2948 262.8389 13.19725419181064
ONEWEB-0522             
1 54140U 22138AD  26200.81950956  .00000050  00000+0  92052-4 0  9999
2 54140  87.9196 298.4622 0001979 104.7791 255.3561 13.19724087181115
ONEWEB-0523             
1 54141U 22138AE  26200.68048944 -.00000170  00000+0 -44907-3 0  9990
2 54141  87.9182 267.9662 0002154  76.5849 283.5525 13.20771084183590
ONEWEB-0524             
1 54142U 22138AF  26200.74615036 -.00000238  00000+0 -61826-3 0  9994
2 54142  87.9181 267.9498 0002817  87.4735 272.6721 13.20770768183605
ONEWEB-0525             
1 54143U 22138AG  26200.76265096  .00000034  00000+0  52220-4 0  9995
2 54143  87.9195 298.4807 0002297 108.7272 251.4110 13.19723441181125
ONEWEB-0526             
1 54144U 22138AH  26200.79582237  .00000010  00000+0 -84792-5 0  9993
2 54144  87.9193 298.4747 0002152 102.3218 257.8155 13.19724468181104
ONEWEB-0529             
1 54145U 22138AJ  26200.72316729  .00000018  00000+0  12495-4 0  9995
2 54145  87.9185 298.4958 0002137 106.6129 253.5238 13.19726126181110
ONEWEB-0531             
1 54146U 22138AK  26200.73267431 -.00000005  00000+0 -45107-4 0  9996
2 54146  87.9186 267.9500 0002373  77.3124 282.8275 13.20769709183605
ONEWEB-0535             
1 54147U 22138AL  26200.75632257  .00000065  00000+0  13091-3 0  9991
2 54147  87.9196 298.4762 0001919  91.3977 268.7376 13.19723524181137
ONEWEB-0536             
1 54148U 22138AM  26200.18890948 -.00000164  00000+0 -43602-3 0  9995
2 54148  87.9170 268.0769 0002626  76.7913 283.3513 13.20771064183528
ONEWEB-0527             
1 54642U 22166A   26200.12052056  .00000074  00000+0  14654-3 0  9992
2 54642  87.9232 237.6411 0002107  97.0728 263.0645 13.21827773175753
ONEWEB-0528             
1 54643U 22166B   26200.80263426  .00000003  00000+0 -25258-4 0  9999
2 54643  87.9231 237.5079 0002188 100.0695 260.0686 13.21826446175858
ONEWEB-0539             
1 54644U 22166C   26200.53769396  .00000050  00000+0  90727-4 0  9991
2 54644  87.9236 237.5346 0001851  96.4002 263.7343 13.21824225175816
ONEWEB-0540             
1 54645U 22166D   26200.46886742 -.00000076  00000+0 -21481-3 0  9999
2 54645  87.9230 237.5764 0001953  94.4633 265.6724 13.21824388175797
ONEWEB-0542             
1 54646U 22166E   26200.54779552 -.00000012  00000+0 -59679-4 0  9990
2 54646  87.9240 237.5318 0001760  96.3944 263.7390 13.21826124175817
