{"fetched_at":"2026-07-20T07:40:22.620Z","source":"https://celestrak.org/NORAD/elements/gp.php?GROUP=oneweb&FORMAT=JSON","constellation":"oneweb","records":[{"OBJECT_NAME":"ONEWEB-0520","OBJECT_ID":"2022-138AB","EPOCH":"2026-07-19T19:21:54.476928","CLASSIFICATION_TYPE":"U","MEAN_MOTION":13.19725102,"ECCENTRICITY":0.0002118,"INCLINATION":87.9193,"RA_OF_ASC_NODE":298.4733,"ARG_OF_PERICENTER":107.2032,"MEAN_ANOMALY":252.9333,"EPHEMERIS_TYPE":0,"NORAD_CAT_ID":54138,"ELEMENT_SET_NO":999,"REV_AT_EPOCH":18112,"BSTAR":-0.00043827,"MEAN_MOTION_DOT":-0.00000163,"MEAN_MOTION_DDOT":0},{"OBJECT_NAME":"ONEWEB-0521","OBJECT_ID":"2022-138AC","EPOCH":"2026-07-19T18:20:28.437792","CLASSIFICATION_TYPE":"U","MEAN_MOTION":13.19725419,"ECCENTRICITY":0.0001797,"INCLINATION":87.9198,"RA_OF_ASC_NODE":298.4709,"ARG_OF_PERICENTER":97.2948,"MEAN_ANOMALY":262.8389,"EPHEMERIS_TYPE":0,"NORAD_CAT_ID":54139,"ELEMENT_SET_NO":999,"REV_AT_EPOCH":18106,"BSTAR":-0.00019612,"MEAN_MOTION_DOT":-6.6e-7,"MEAN_MOTION_DDOT":0},{"OBJECT_NAME":"ONEWEB-0522","OBJECT_ID":"2022-138AD","EPOCH":"2026-07-19T19:40:05.625984","CLASSIFICATION_TYPE":"U","MEAN_MOTION":13.19724087,"ECCENTRICITY":0.0001979,"INCLINATION":87.9196,"RA_OF_ASC_NODE":298.4622,"ARG_OF_PERICENTER":104.7791,"MEAN_ANOMALY":255.3561,"EPHEMERIS_TYPE":0,"NORAD_CAT_ID":54140,"ELEMENT_SET_NO":999,"REV_AT_EPOCH":18111,"BSTAR":0.000092052,"MEAN_MOTION_DOT":5e-7,"MEAN_MOTION_DDOT":0},{"OBJECT_NAME":"ONEWEB-0523","OBJECT_ID":"2022-138AE","EPOCH":"2026-07-19T16:19:54.287616","CLASSIFICATION_TYPE":"U","MEAN_MOTION":13.20771084,"ECCENTRICITY":0.0002154,"INCLINATION":87.9182,"RA_OF_ASC_NODE":267.9662,"ARG_OF_PERICENTER":76.5849,"MEAN_ANOMALY":283.5525,"EPHEMERIS_TYPE":0,"NORAD_CAT_ID":54141,"ELEMENT_SET_NO":999,"REV_AT_EPOCH":18359,"BSTAR":-0.00044907,"MEAN_MOTION_DOT":-0.0000017,"MEAN_MOTION_DDOT":0},{"OBJECT_NAME":"ONEWEB-0524","OBJECT_ID":"2022-138AF","EPOCH":"2026-07-19T17:54:27.391104","CLASSIFICATION_TYPE":"U","MEAN_MOTION":13.20770768,"ECCENTRICITY":0.0002817,"INCLINATION":87.9181,"RA_OF_ASC_NODE":267.9498,"ARG_OF_PERICENTER":87.4735,"MEAN_ANOMALY":272.6721,"EPHEMERIS_TYPE":0,"NORAD_CAT_ID":54142,"ELEMENT_SET_NO":999,"REV_AT_EPOCH":18360,"BSTAR":-0.00061826,"MEAN_MOTION_DOT":-0.00000238,"MEAN_MOTION_DDOT":0},{"OBJECT_NAME":"ONEWEB-0525","OBJECT_ID":"2022-138AG","EPOCH":"2026-07-19T18:18:13.042944","CLASSIFICATION_TYPE":"U","MEAN_MOTION":13.19723441,"ECCENTRICITY":0.0002297,"INCLINATION":87.9195,"RA_OF_ASC_NODE":298.4807,"ARG_OF_PERICENTER":108.7272,"MEAN_ANOMALY":251.411,"EPHEMERIS_TYPE":0,"NORAD_CAT_ID":54143,"ELEMENT_SET_NO":999,"REV_AT_EPOCH":18112,"BSTAR":0.00005222,"MEAN_MOTION_DOT":3.4e-7,"MEAN_MOTION_DDOT":0},{"OBJECT_NAME":"ONEWEB-0526","OBJECT_ID":"2022-138AH","EPOCH":"2026-07-19T19:05:59.052768","CLASSIFICATION_TYPE":"U","MEAN_MOTION":13.19724468,"ECCENTRICITY":0.0002152,"INCLINATION":87.9193,"RA_OF_ASC_NODE":298.4747,"ARG_OF_PERICENTER":102.3218,"MEAN_ANOMALY":257.8155,"EPHEMERIS_TYPE":0,"NORAD_CAT_ID":54144,"ELEMENT_SET_NO":999,"REV_AT_EPOCH":18110,"BSTAR":-0.0000084792,"MEAN_MOTION_DOT":1e-7,"MEAN_MOTION_DDOT":0},{"OBJECT_NAME":"ONEWEB-0529","OBJECT_ID":"2022-138AJ","EPOCH":"2026-07-19T17:21:21.653856","CLASSIFICATION_TYPE":"U","MEAN_MOTION":13.19726126,"ECCENTRICITY":0.0002137,"INCLINATION":87.9185,"RA_OF_ASC_NODE":298.4958,"ARG_OF_PERICENTER":106.6129,"MEAN_ANOMALY":253.5238,"EPHEMERIS_TYPE":0,"NORAD_CAT_ID":54145,"ELEMENT_SET_NO":999,"REV_AT_EPOCH":18111,"BSTAR":0.000012495,"MEAN_MOTION_DOT":1.8e-7,"MEAN_MOTION_DDOT":0},{"OBJECT_NAME":"ONEWEB-0531","OBJECT_ID":"2022-138AK","EPOCH":"2026-07-19T17:35:03.060384","CLASSIFICATION_TYPE":"U","MEAN_MOTION":13.20769709,"ECCENTRICITY":0.0002373,"INCLINATION":87.9186,"RA_OF_ASC_NODE":267.95,"ARG_OF_PERICENTER":77.3124,"MEAN_ANOMALY":282.8275,"EPHEMERIS_TYPE":0,"NORAD_CAT_ID":54146,"ELEMENT_SET_NO":999,"REV_AT_EPOCH":18360,"BSTAR":-0.000045107,"MEAN_MOTION_DOT":-5e-8,"MEAN_MOTION_DDOT":0},{"OBJECT_NAME":"ONEWEB-0535","OBJECT_ID":"2022-138AL","EPOCH":"2026-07-19T18:09:06.270048","CLASSIFICATION_TYPE":"U","MEAN_MOTION":13.19723524,"ECCENTRICITY":0.0001919,"INCLINATION":87.9196,"RA_OF_ASC_NODE":298.4762,"ARG_OF_PERICENTER":91.3977,"MEAN_ANOMALY":268.7376,"EPHEMERIS_TYPE":0,"NORAD_CAT_ID":54147,"ELEMENT_SET_NO":999,"REV_AT_EPOCH":18113,"BSTAR":0.00013091,"MEAN_MOTION_DOT":6.5e-7,"MEAN_MOTION_DDOT":0},{"OBJECT_NAME":"ONEWEB-0536","OBJECT_ID":"2022-138AM","EPOCH":"2026-07-19T04:32:01.779072","CLASSIFICATION_TYPE":"U","MEAN_MOTION":13.20771064,"ECCENTRICITY":0.00026264,"INCLINATION":87.917,"RA_OF_ASC_NODE":268.0769,"ARG_OF_PERICENTER":76.7913,"MEAN_ANOMALY":283.3513,"EPHEMERIS_TYPE":0,"NORAD_CAT_ID":54148,"ELEMENT_SET_NO":999,"REV_AT_EPOCH":18352,"BSTAR":-0.00043602336,"MEAN_MOTION_DOT":-0.00000164,"MEAN_MOTION_DDOT":0},{"OBJECT_NAME":"ONEWEB-0527","OBJECT_ID":"2022-166A","EPOCH":"2026-07-19T02:53:32.976384","CLASSIFICATION_TYPE":"U","MEAN_MOTION":13.21827773,"ECCENTRICITY":0.00021072,"INCLINATION":87.9232,"RA_OF_ASC_NODE":237.6411,"ARG_OF_PERICENTER":97.0728,"MEAN_ANOMALY":263.0645,"EPHEMERIS_TYPE":0,"NORAD_CAT_ID":54642,"ELEMENT_SET_NO":999,"REV_AT_EPOCH":17575,"BSTAR":0.0001465437,"MEAN_MOTION_DOT":7.4e-7,"MEAN_MOTION_DDOT":0},{"OBJECT_NAME":"ONEWEB-0528","OBJECT_ID":"2022-166B","EPOCH":"2026-07-19T19:15:47.600064","CLASSIFICATION_TYPE":"U","MEAN_MOTION":13.21826446,"ECCENTRICITY":0.0002188,"INCLINATION":87.9231,"RA_OF_ASC_NODE":237.5079,"ARG_OF_PERICENTER":100.0695,"MEAN_ANOMALY":260.0686,"EPHEMERIS_TYPE":0,"NORAD_CAT_ID":54643,"ELEMENT_SET_NO":999,"REV_AT_EPOCH":17585,"BSTAR":-0.000025258,"MEAN_MOTION_DOT":3e-8,"MEAN_MOTION_DDOT":0},{"OBJECT_NAME":"ONEWEB-0539","OBJECT_ID":"2022-166C","EPOCH":"2026-07-19T12:54:16.758144","CLASSIFICATION_TYPE":"U","MEAN_MOTION":13.21824225,"ECCENTRICITY":0.0001851,"INCLINATION":87.9236,"RA_OF_ASC_NODE":237.5346,"ARG_OF_PERICENTER":96.4002,"MEAN_ANOMALY":263.7343,"EPHEMERIS_TYPE":0,"NORAD_CAT_ID":54644,"ELEMENT_SET_NO":999,"REV_AT_EPOCH":17581,"BSTAR":0.000090727,"MEAN_MOTION_DOT":5e-7,"MEAN_MOTION_DDOT":0},{"OBJECT_NAME":"ONEWEB-0540","OBJECT_ID":"2022-166D","EPOCH":"2026-07-19T11:15:10.145088","CLASSIFICATION_TYPE":"U","MEAN_MOTION":13.21824388,"ECCENTRICITY":0.00019531,"INCLINATION":87.923,"RA_OF_ASC_NODE":237.5764,"ARG_OF_PERICENTER":94.4633,"MEAN_ANOMALY":265.6724,"EPHEMERIS_TYPE":0,"NORAD_CAT_ID":54645,"ELEMENT_SET_NO":999,"REV_AT_EPOCH":17579,"BSTAR":-0.0002148104,"MEAN_MOTION_DOT":-7.6e-7,"MEAN_MOTION_DDOT":0},{"OBJECT_NAME":"ONEWEB-0542","OBJECT_ID":"2022-166E","EPOCH":"2026-07-19T13:08:49.532928","CLASSIFICATION_TYPE":"U","MEAN_MOTION":13.21826124,"ECCENTRICITY":0.000176,"INCLINATION":87.924,"RA_OF_ASC_NODE":237.5318,"ARG_OF_PERICENTER":96.3944,"MEAN_ANOMALY":263.739,"EPHEMERIS_TYPE":0,"NORAD_CAT_ID":54646,"ELEMENT_SET_NO":999,"REV_AT_EPOCH":17581,"BSTAR":-0.000059679,"MEAN_MOTION_DOT":-1.2e-7,"MEAN_MOTION_DDOT":0}]}
